[{"OBJECT_NAME":"STARLINK-5683","OBJECT_ID":"2023-015D","EPOCH":"2026-03-09T23:29:53.706048","MEAN_MOTION":15.02533908,"ECCENTRICITY":9.584e-5,"INCLINATION":43.0043,"RA_OF_ASC_NODE":324.7523,"ARG_OF_PERICENTER":271.655,"MEAN_ANOMALY":88.4182,"EPHEMERIS_TYPE":0,"CLASSIFICATION_TYPE":"U","NORAD_CAT_ID":55452,"ELEMENT_SET_NO":999,"REV_AT_EPOCH":17079,"BSTAR":-4.2001786e-5,"MEAN_MOTION_DOT":-7.71e-6,"MEAN_MOTION_DDOT":0},{"OBJECT_NAME":"KORSAT-1","OBJECT_ID":"2024-066L","EPOCH":"2026-03-09T23:36:29.126880","MEAN_MOTION":14.99775855,"ECCENTRICITY":0.00103896,"INCLINATION":45.4118,"RA_OF_ASC_NODE":38.4763,"ARG_OF_PERICENTER":214.4294,"MEAN_ANOMALY":145.5913,"EPHEMERIS_TYPE":0,"CLASSIFICATION_TYPE":"U","NORAD_CAT_ID":59452,"ELEMENT_SET_NO":999,"REV_AT_EPOCH":10517,"BSTAR":0.00047970888,"MEAN_MOTION_DOT":5.797e-5,"MEAN_MOTION_DDOT":0}]
